COMMENT,ORIGINATOR,NORAD_CAT_ID,OBJECT_NAME,OBJECT_TYPE,CLASSIFICATION_TYPE,INTLDES,EPOCH,EPOCH_MICROSECONDS,MEAN_MOTION,ECCENTRICITY,INCLINATION,RA_OF_ASC_NODE,ARG_OF_PERICENTER,MEAN_ANOMALY,EPHEMERIS_TYPE,ELEMENT_SET_NO,REV_AT_EPOCH,BSTAR,MEAN_MOTION_DOT,MEAN_MOTION_DDOT,FILE,TLE_LINE0,TLE_LINE1,TLE_LINE2,OBJECT_ID,OBJECT_NUMBER,SEMIMAJOR_AXIS,PERIOD,APOGEE,PERIGEE,DECAYED
"GENERATED VIA SPACETRACK.ORG API","18 SPCS","55087","SPACEBEE-167","PAYLOAD","U","23001CG","2023-06-15 02:58:07","51008","15.19360288","0.0014192","97.4773","226.1655","17.3195","342.8521","0","999","2478","0.00062415","0.00013175","0","3933820","0 SPACEBEE-167","1 55087U 23001CG  23166.12369272  .00013175  00000-0  62415-3 0  9999","2 55087  97.4773 226.1655 0014192  17.3195 342.8521 15.19360288 24783","2023-001CG","55087","6885.910","94.777","517.547","498.002","0"
"GENERATED VIA SPACETRACK.ORG API","18 SPCS","55087","SPACEBEE-167","PAYLOAD","U","23001CG","2023-06-15 17:11:38","747616","15.19377253","0.0014116","97.4774","226.7525","15.291","344.8749","0","999","2487","0.0006638","0.00014025","0","3934071","0 SPACEBEE-167","1 55087U 23001CG  23166.71642069  .00014025  00000-0  66380-3 0  9992","2 55087  97.4774 226.7525 0014116  15.2910 344.8749 15.19377253 24878","2023-001CG","55087","6885.859","94.776","517.444","498.003","0"
"GENERATED VIA SPACETRACK.ORG API","18 SPCS","55087","SPACEBEE-167","PAYLOAD","U","23001CG","2023-06-16 02:40:39","481248","15.19392388","0.0014045","97.4776","227.1437","13.8004","346.3612","0","999","2493","0.00077539","0.00016406","0","3934686","0 SPACEBEE-167","1 55087U 23001CG  23167.11156807  .00016406  00000-0  77539-3 0  9990","2 55087  97.4776 227.1437 0014045  13.8004 346.3612 15.19392388 24935","2023-001CG","55087","6885.813","94.775","517.349","498.007","0"
"GENERATED VIA SPACETRACK.ORG API","18 SPCS","55087","SPACEBEE-167","PAYLOAD","U","23001CG","2023-06-16 15:19:19","871616","15.19416851","0.0013962","97.4773","227.6654","12.1172","348.0395","0","999","2501","0.00095725","0.00020295","0","3934906","0 SPACEBEE-167","1 55087U 23001CG  23167.63842444  .00020295  00000-0  95725-3 0  9994","2 55087  97.4773 227.6654 0013962  12.1172 348.0395 15.19416851 25012","2023-001CG","55087","6885.739","94.773","517.218","497.990","0"
"GENERATED VIA SPACETRACK.ORG API","18 SPCS","55087","SPACEBEE-167","PAYLOAD","U","23001CG","2023-06-16 16:54:09","860256","15.19419149","0.0013988","97.4775","227.7306","11.893","348.2632","0","999","2502","0.00092455","0.00019599","0","3934949","0 SPACEBEE-167","1 55087U 23001CG  23167.70428079  .00019599  00000-0  92455-3 0  9998","2 55087  97.4775 227.7306 0013988  11.8930 348.2632 15.19419149 25025","2023-001CG","55087","6885.732","94.773","517.229","497.965","0"
"GENERATED VIA SPACETRACK.ORG API","18 SPCS","55087","SPACEBEE-167","PAYLOAD","U","23001CG","2023-06-17 10:17:19","340448","15.1944227","0.0013967","97.4772","228.4482","9.5269","350.6228","0","999","2513","0.00072277","0.00015308","0","3935591","0 SPACEBEE-167","1 55087U 23001CG  23168.42869607  .00015308  00000-0  72277-3 0  9998","2 55087  97.4772 228.4482 0013967   9.5269 350.6228 15.19442270 25132","2023-001CG","55087","6885.662","94.772","517.144","497.910","0"
"GENERATED VIA SPACETRACK.ORG API","18 SPCS","55087","SPACEBEE-167","PAYLOAD","U","23001CG","2023-06-17 15:01:49","3968","15.19449873","0.0013934","97.4771","228.6438","8.7841","351.3635","0","999","2516","0.00071723","0.00015193","0","3935891","0 SPACEBEE-167","1 55087U 23001CG  23168.62626162  .00015193  00000-0  71723-3 0  9994","2 55087  97.4771 228.6438 0013934   8.7841 351.3635 15.19449873 25164","2023-001CG","55087","6885.639","94.771","517.099","497.910","0"
"GENERATED VIA SPACETRACK.ORG API","18 SPCS","55087","SPACEBEE-167","PAYLOAD","U","23001CG","2023-06-17 16:36:38","887200","15.19451691","0.0013921","97.4771","228.709","8.5594","351.5875","0","999","2517","0.00070089","0.00014845","0","3936148","0 SPACEBEE-167","1 55087U 23001CG  23168.69211675  .00014845  00000-0  70089-3 0  9997","2 55087  97.4771 228.7090 0013921   8.5594 351.5875 15.19451691 25178","2023-001CG","55087","6885.634","94.771","517.084","497.913","0"
"GENERATED VIA SPACETRACK.ORG API","18 SPCS","55087","SPACEBEE-167","PAYLOAD","U","23001CG","2023-06-18 09:59:47","92128","15.19472361","0.0013847","97.4769","229.4264","5.9921","354.1476","0","999","2528","0.00065699","0.00013917","0","3936420","0 SPACEBEE-167","1 55087U 23001CG  23169.41651727  .00013917  00000-0  65699-3 0  9994","2 55087  97.4769 229.4264 0013847   5.9921 354.1476 15.19472361 25283","2023-001CG","55087","6885.571","94.770","516.971","497.902","0"
"GENERATED VIA SPACETRACK.ORG API","18 SPCS","55087","SPACEBEE-167","PAYLOAD","U","23001CG","2023-06-19 03:22:54","427008","15.19494431","0.0013744","97.4767","230.1438","3.1346","356.9972","0","999","2539","0.00067519","0.00014314","0","3936984","0 SPACEBEE-167","1 55087U 23001CG  23170.14090772  .00014314  00000-0  67519-3 0  9998","2 55087  97.4767 230.1438 0013744   3.1346 356.9972 15.19494431 25395","2023-001CG","55087","6885.504","94.768","516.833","497.906","0"
"GENERATED VIA SPACETRACK.ORG API","18 SPCS","55087","SPACEBEE-167","PAYLOAD","U","23001CG","2023-06-20 03:05:19","387104","15.19525292","0.0013671","97.4764","231.1224","359.3578","0.7637","0","999","2554","0.00074933","0.0001591","0","3938135","0 SPACEBEE-167","1 55087U 23001CG  23171.12869661  .00015910  00000-0  74933-3 0  9999","2 55087  97.4764 231.1224 0013671 359.3578   0.7637 15.19525292 25547","2023-001CG","55087","6885.411","94.766","516.689","497.863","0"
"GENERATED VIA SPACETRACK.ORG API","18 SPCS","55087","SPACEBEE-167","PAYLOAD","U","23001CG","2023-06-20 17:18:45","505728","15.19543818","0.0013643","97.4763","231.7093","357.0414","3.0737","0","999","2563","0.00074768","0.00015884","0","3938524","0 SPACEBEE-167","1 55087U 23001CG  23171.72136002  .00015884  00000-0  74768-3 0  9997","2 55087  97.4763 231.7093 0013643 357.0414   3.0737 15.19543818 25630","2023-001CG","55087","6885.355","94.765","516.614","497.827","0"
"GENERATED VIA SPACETRACK.ORG API","18 SPCS","55087","SPACEBEE-167","PAYLOAD","U","23001CG","2023-06-20 17:18:45","505728","15.19543818","0.0013643","97.4763","231.7093","357.0414","3.0737","0","999","2563","0.00074768","0.00015884","0","3938544","0 SPACEBEE-167","1 55087U 23001CG  23171.72136002  .00015884  00000-0  74768-3 0  9997","2 55087  97.4763 231.7093 0013643 357.0414   3.0737 15.19543818 25630","2023-001CG","55087","6885.355","94.765","516.614","497.827","0"
"GENERATED VIA SPACETRACK.ORG API","18 SPCS","55087","SPACEBEE-167","PAYLOAD","U","23001CG","2023-06-21 02:47:42","509472","15.19558356","0.0013581","97.4763","232.1006","355.3479","4.7627","0","999","2569","0.00079029","0.00016801","0","3939133","0 SPACEBEE-167","1 55087U 23001CG  23172.11646423  .00016801  00000-0  79029-3 0  9999","2 55087  97.4763 232.1006 0013581 355.3479   4.7627 15.19558356 25697","2023-001CG","55087","6885.311","94.764","516.527","497.825","0"
"GENERATED VIA SPACETRACK.ORG API","18 SPCS","55087","SPACEBEE-167","PAYLOAD","U","23001CG","2023-06-21 17:01:07","488480","15.19577722","0.0013556","97.4761","232.6878","353.4523","6.6532","0","999","2578","0.00074789","0.00015903","0","3940263","0 SPACEBEE-167","1 55087U 23001CG  23172.70911445  .00015903  00000-0  74789-3 0  9993","2 55087  97.4761 232.6878 0013556 353.4523   6.6532 15.19577722 25782","2023-001CG","55087","6885.253","94.763","516.452","497.784","0"
"GENERATED VIA SPACETRACK.ORG API","18 SPCS","55087","SPACEBEE-167","PAYLOAD","U","23001CG","2023-06-22 02:30:03","800160","15.19589741","0.0013548","97.4762","233.0791","351.9891","8.1125","0","999","2584","0.000718","0.00015269","0","3939658","0 SPACEBEE-167","1 55087U 23001CG  23173.10421065  .00015269  00000-0  71800-3 0  9998","2 55087  97.4762 233.0791 0013548 351.9891   8.1125 15.19589741 25840","2023-001CG","55087","6885.217","94.762","516.410","497.753","0"
"GENERATED VIA SPACETRACK.ORG API","18 SPCS","55087","SPACEBEE-167","PAYLOAD","U","23001CG","2023-06-23 10:06:29","188224","15.19636548","0.0013321","97.4758","234.3837","347.2961","12.7936","0","999","2604","0.00079881","0.00017021","0","3940777","0 SPACEBEE-167","1 55087U 23001CG  23174.42117116  .00017021  00000-0  79881-3 0  9998","2 55087  97.4758 234.3837 0013321 347.2961  12.7936 15.19636548 26047","2023-001CG","55087","6885.075","94.760","516.112","497.769","0"
"GENERATED VIA SPACETRACK.ORG API","18 SPCS","55087","SPACEBEE-167","PAYLOAD","U","23001CG","2023-06-24 16:08:02","45760","15.19683769","0.0013228","97.4756","235.623","342.3078","17.7694","0","999","2623","0.00087642","0.0001871","0","3941936","0 SPACEBEE-167","1 55087U 23001CG  23175.67224590  .00018710  00000-0  87642-3 0  9991","2 55087  97.4756 235.6230 0013228 342.3078  17.7694 15.19683769 26231","2023-001CG","55087","6884.933","94.757","515.905","497.690","0"
"GENERATED VIA SPACETRACK.ORG API","18 SPCS","55087","SPACEBEE-167","PAYLOAD","U","23001CG","2023-06-26 02:53:58","85952","15.19738514","0.001313","97.476","237.0578","336.4784","23.5849","0","999","2645","0.00089404","0.00019119","0","3943123","0 SPACEBEE-167","1 55087U 23001CG  23177.12081118  .00019119  00000-0  89404-3 0  9992","2 55087  97.4760 237.0578 0013130 336.4784  23.5849 15.19738514 26457","2023-001CG","55087","6884.767","94.753","515.672","497.593","0"
"GENERATED VIA SPACETRACK.ORG API","18 SPCS","55087","SPACEBEE-167","PAYLOAD","U","23001CG","2023-06-27 10:30:12","594528","15.19780717","0.0013023","97.4764","238.3623","331.5941","28.4583","0","999","2665","0.00072635","0.00015531","0","3944262","0 SPACEBEE-167","1 55087U 23001CG  23178.43764577  .00015531  00000-0  72635-3 0  9996","2 55087  97.4764 238.3623 0013023 331.5941  28.4583 15.19780717 26651","2023-001CG","55087","6884.640","94.751","515.471","497.539","0"
